SITE ADDRESS,SITE ADDRESS 2,CITY,STATE,ZIP
1800 N Grand River Avenue,,Lansing,MI,48906
24700 Northwestern Hwy,,Southfield,MI,48075
43831 Devin Shafron Drive (Bldg C),,Ashburn,VA,20147
44480 Hastings Drive,,Ashburn,VA,20147
171 Bearfoot Rd,,Northborough,MA,--
4700 Old Ironsides Drive,,Santa Clara,CA,95054
47923 Warm Springs Blvd,,Fremont,CA,94539
2836 Peterson Place,,Norcross,GA,30071
6620 Bay Circle,,Norcross,GA,30071
4513 Western Avenue,,Lisle,IL,60532
1525 NW 98 Court,,Doral,FL,
15 Enterprise Avenue,,Secaucus,NJ,7094
200 Webro Rd.,,Parsippany,NJ,7054
365 S Randolphville,,Piscataway,NJ,8854
184 Railroad Avenue,,Warminster,PA,18974
1700 Richard Avenue,,Santa Clara,CA,95050
2151 Mission College Boulevard,,Santa Clara,CA,95054
7210 Ardmore Street,,Houston,TX,77054
7599 Corporate Way,,Eden Prairie,MN,55344
6048 Century Oaks Dr,,Chattanooga,TN,
316 E Monroe Street,,South Bend,IN,46601
5301 Buckeystown Pike,,Frederick,MD,21704
7990 Science Applications Court,,Vienna,VA,22182
9651 Hornbaker Rd.,,Manassas,VA,20109
410 Commerce Boulevard,,Carlstadt,NJ,7072
140 Akron Road,,Ephrata,PA,17522
3065 Gold Camp Drive,,Rancho Cordova,CA,95050
950 17th Street,,Denver,CO,80202
9000 SW Nimbus Avenue,Portland #2,Beaverton,OR,97008
1300 SW 7th Street,Suite 112,Tukwila,WA,98057
601 W Main Avenue,,Spokane,WA,99201
9355 Grand Ave,,Franklin Park,IL,60131
900 Venture Drive,,Allen,TX,75013
752 Barret Ave.,,Louisville,KY,40204
"7401 E Ben White Blvd, Building 7",,Austin,TX,78741
47 Mall Dr.,,Commack,NY,11725
4121 Perimeter Center Place,,Oklahoma City,OK,73112
185 Berry Street,,San Francisco,CA,94107
12175 North Freeway,,Houston,TX,77060
8675 Concord Center Drive,,Englewood,CO,
1125 Energy Park Drive,,St. Paul,MN,55108
7505 John W. Carpenter Fwy,,Dallas,TX,75247
615 N. 48th St.,,Phoenix,AZ,85008
5700 North Blackstock Rd,,Spartanburg,SC,29301
3618 8th Ave.,,Kenosha,WI,53140
2401 E. Katella Ave,,Anaheim,CA,92806
2323 Bryan St,,Dallas,TX,75201
111 8th Ave,,New York,NY,10011
5050 Poplar Avenue,,Memphis,TN,38157
4301 Connecticut Avenue,,Washington,DC,20008
21561 Beaumeade Circle,,Ashburn,VA,20147
22810 International Dr,,Sterling,VA,20166
43940 Digital Loudoun Plaza- Loudoun (Bldg G),,Ashburn,VA,20147
4101 Maple Avenue,,Pennsauken,NJ,8109
"1309 Noble Street, floor 6",,Philadelphia,PA,19123
20845 Sockeye Pl,,Bend,OR ,97701
"2020 Fifth Avenue, Westin Annex",,Seattle,WA,98121
555 Scherers Ct.,,Columbus,OH,43085
2501 S. State Hwy 121,,Lewisville,TX,75067
21641 Beaumeade Circle,,Ashburn,VA,20147
7060 Empire Central Drive,,Houston,TX,77040
3004 Irving Blvd.,,Dallas,TX,75247
21700 Melrose Ave.,,Southfield,MI,48075
30 Temple Street,,Nashua,NH,3060
15400 SE Place,,Bellevue,WA,98007
5480 Feltl Road,,Minnetonka,MN,55343
2 Prince Ave,,Lowell,MA,2110
"85 10th Avenue, 7th Floor",,New York,NY,10011
6431 Longhorn Dr,,Irving,TX,--
1920 East Maple Ave,,El Segundo,CA,90245
10105 David Taylor Drive,,Charlotte,NC,28262
4227 Lafayette Center Dr,,Chantilly,VA,20151
59 Innerbelt Road,,Somerville,MA,2143
34 Exchange Place,,Jersey City,NJ,7302
313 Inverness Way South,,Englewood,CO,80112
3830 Singer Boulevard NE,,Albuquerque,NM,87109
3225 Alderwood Mall Blvd - Suite E,,Lynnwood,WA,98036
801 S. 16th Street,,Phoenix,AZ,85034
205 W. 9th St.,,Austin,TX,78701
14500 W. 105th St.,,Lenexa,KS,66215
800 Secaucus Road,,Secaucus,NJ,7094
3200 Blake Street,,Denver,CO,80205
136 South Main Street ( 136 South Temple Street),,Salt Lake City,UT,84101
23605 NW Huffman St,,Hillsboro,OR,97124
5515 Nobel Drive,,Fitchburg,WI,53711
21110 Ridgetop Circle,,Sterling,VA,20166
3175 Spring Street,,Redwood City,CA,94063
11003 Corporate Center Drive,,Houston,TX,77041
123 Central Avenue NW,,Albuquerque,NM,87102
505 Marquette Ave NW,,Albuquerque,NM,87120
10575 SW Cascade Avenue,Suite F,Tigard,OR,97223
4005 S Mendenhall Road,,Memphis,TN,38115
1531 Commonwealth Drive,,Tallahassee,FL,32303
650 Randolph Road,"Suite 110, 120",Franklin Township,NJ,8854
1745 W 5th Ave.,,Eugene,OR,97402
360 E. 22nd Street,,Lombard,IL,60148
505 West Merrill,,Indianapolis,IN,46225
200 Technology Drive,,Pittsburgh,PA,15219
1050 17th Street,,Denver,CO,80265
133 N. Broadway Street,,Knoxville,TN,37932
2575 Willow Point Way,103,Knoxville,TN,37931
708 Melrose Avenue,,Berry Hill,TN,37211
111 Pavonia Ave (aka 111 Town Square Place),,Jersey City,NJ,7310
3 Corporate Pl,,Piscataway,NJ,8854
250 Stockton Avenue,,San Jose,CA,95126
12031 North Freeway,,Houston,TX,77067
8413 Hempstead Road,,Houston,TX,
2990 Sidco Ave,,Nashville,TN,37204
155 N Michigan Street,,Chicago,IL,60601
2800 S. Ashland Ave,,Chicago,IL,60608
303 E. Washington Street,,Bloomington,IL,61701
300 JFK Boulevard East,,Weehawken,NJ,7086
5115 Arnold,,McClellan,CA,
9000 Foothills,,Roseville,Ca,
14197 SW Millikan Way,,Cedar Hills,OR,97005
3255 Neil Armstrong Blvd.,,Eagan,MN,55121
451 D Street,3rd Floor,Boston,MA,2210
60 Hudson St. Suite 1602,,New York,NY,10013
18155 Technology Drive,,Culpeper,VA,22701
1310 Redwood Way,,Petalumma,CA,
2260 Apollo Way,,Santa Rosa,CA,
4211 Southwest Freeway,,,,
3350 Eastbrook Drive,,Fort Collins,CO,
545 E. Algonquin Road,Ste. D,Arlington Heights,IL,60005
584 W 5th Ave,,Naperville,IL,60563
880 E State Pkwy,,Schaumburg,IL,60173
6435 N Hix Road,,Westland,MI,
12401 Prosperity Drive,,Silver Springs,MD,20904
3864 Courtney Street,,Bethlehem,PA,18017
441 Science Park Road,,State College,PA,16801
4735 Walnut Street,,Boulder,CO,80301
312 Blue Bird Dr,,Goodlettsville,TN,--
4635 Southwest Freeway,,Houston,TX,77027
1593 NE Expressway,,Atlanta,GA,30329
34 Peachtree Street NW,,Atlanta,GA,30303
3919 Crescent Circle,,South Bend,IN,46628
200 Galleria Officentre,,Southfield,MI,48034
"21691 Filigree Court, Bldg E",,Ashburn,VA,20147
1825 Savercool,,Bethlehem,PA,
2001 Fortune Drive,,San Jose,CA,95131
9110 Commerce Center Circle,,Highlands Ranch,CO,80129
1101 SE Tech Center Dr. Suite 150,,Vancouver,WA,98683
4450 Dean Lakes Blvd,,Shakopee,MN,55379
7145 Boone Ave. N Suite 140,,Brooklyn Park,MN,55428
12655 Edison Drive,,Alpharetta,GA,--
1000 Commerce Drive,,Oak Brook,IL,60523
1441 Touhy Avenue,,Elk Grove Village,IL,60007
215 W. Ohio St. 5th Floor,,Chicago,IL,60564
301 West Bay Street,,Jacksonville,FL,--
49 NW 5th Street,,Miami,FL,33128
8324 Baymeadows Way,,Jacksonville,FL,--
1175 N Main St,,Harrisonburg,VA,22802
8209 Valleypipe (Valley Pike),,Middletown,VA,--
9680 Atlee Commons Dr,,Ashland,VA,23005
636 Pierce St,,Somerset,NJ,8873
"Harborside Financial Center, 3 2nd St.",,Jersey City,NJ,7302
650 Smithfield Road,,Pittsburgh,PA,15222
14926 Pony Express Dr.,,Bluffdale,UT,84065
851 Coho Way Suite 206,,Bellingham,WA,98225
1708 West Creek Lane,,Chaska,MN,55318
250 Locke Drive,,Marlborough,MA,1752
50 Madison Road,,Totowa,NJ,7512
1255 Euclid Ave.,,Cleveland,OH,44103
1360 Kifer Rd.,,Sunnyvale,CA,94086
660 Greens Parkway,,Houston,TX,77067
400 SW 6th Avenue,Suite 500?,Portland,OR,97214
920 East Oak Street,#4,Lake in the Hills,IL,60156
1 Evertrust Plaza,,Jersey City,NJ,7302
865 Ridge Road,,Monmouth Junction,NJ,8852
1 Technology Park,,Harrisburg,PA,17110
8 Research Parkway,,Wallingford,CT,6450
401 Bielenberg Drive,,Woodbury,MN,55125
9333 Grand Ave (9355),,Franklin Park,IL,60131
950 East Oak Street,,Lake in the Hills,IL,60156
20441 Century Boulevard,,Germantown,MD,
50 Innerbelt Road,,Somerville,MA,2143
100 Bigelow Street,,Holyoke,MA,1040
2805 Lafayette Street,,Santa Clara,CA,95054
21111 Ridgetop Circle,,Sterling,VA,20166
"200B Meadowlands Pkwy, Secaucus NJ 07094",,Secaucus,NJ,7094
3949 Schelden Circle,,Bethlehem,PA,18017
20435 72nd Ave S. Suite 150,,Kent,WA,98032
1003 Donnelly Avenue SW,,Atlanta,GA,30310
1841 Air Lane Drive,,Nashville,TN,37210
2132 NW 114th Avenue,,Miami,FL,33172
3500 NW Boca Raton Blvd.,,Boca Raton,FL,33431
6602 Executive Park Court N,,Jacksonville,FL,32216
2703 Ena Drive,,Lansing,MI,48917
1450 E Parham Road,,Richmond,VA,23228
22 Linnell Circle,,Billerica,MA,
3003 Woodbridge Avenue,,Edison,NJ ,8837
2202 Liberty Ave.,,Pittsburgh,PA,15222
2972 Stender Way,,Santa Clara,CA,95054
"23245 NW Evergreen Parkway, Building C",,Hillsboro,OR,97124
10 S Post Street,,Spokane,WA,99201
3101 Western Ave.,,Seattle,WA,98121
"3425 South 116th (Building 6, Suite 133)",,Tukwila,WA,98168
2 Ravinia Drive,,Atlanta,GA,30343
4311 Communications Drive,,Norcross,GA,30093
255 Caspian Drive,,Sunnyvale,CA,94089
707 SW Washington Street,Suite 935,Portland,OR,97205
3199 Pilot Knob Road,,Eagan,MN,55121
1275 K Street NW,Suite 700A,Washington,DC,20005
3825 NW Aloclek Place,,Hilsboro,OR,97124
250 Marquette Ave.,,Minneapolis,MN,55401
13935 Bishops Drive,,Brookfield,WI,53005
21721 Filigree Court,,Ashburn,VA,20147
15 Shattuck Road,,Andover,MA,1810
"74 West Street, 1st Floor",1st Floor,Waltham,MA,2451
80 Merritt Blvd (60?),,Trumball,CT,
2999 Gold Canal Road,,Rancho Cordova,CA,95670
8636 SPeoria,,Englewood,CO,
44521 Hastings Drive,,Ashburn,VA,--
45845 & 45901 Nokes Blvd,,Sterling,VA,20164
1101 Space Park Dr.,,Santa Clara,CA,95054
1124 Hardy Road,,Houston,TX,77020
2812 Spring Road SE Suite 210-212,Suite 210-212,Atlanta,GA,30339
4267 Meridian Parkway,,Aurora,IL,
180 Peachtree Street NW,3rd and 4th Floors,Atlanta,GA,30303
311 Eddy Lane ,,Franklin,TN,37064
701 Congressional Blvd.,,Carmel,IN,46032
731 West Henry Street,,Indianapolis,IN,46225
100 Delawanna Avenue,,Clifton,NJ,7014
6340 South 3000 East,,Salt Lake City,UT,84121
800/810 Jorie Blvd.,Suite 120,Oak Brook,IL,60523
11155 Red Run Blvd.,,Owings Mills,MD,21117
21571 Beaumeade Circle,,Ashburn,VA,20147
1601 Trapelo Rd. Ste 397,,Waltham,MA,2451
265 Winter Street,,Waltham,MA,2451
56 Roland Street,2nd Floor,Boston,MA,2129
14 Resilient Circle,,Brunswick,ME,4011
300 Steel Road,,Morrisville,PA,19067
282 Corliss Street,,Pittsburgh,PA,15220
804 Academy Heights Ave,,Ephrata,PA,
10980 Gold Center Drive,,Rancho Cordova,CA,95670
1625 W National Drive,,Sacramento,CA,
1639 Princeton Ave,,Modesto,CA,
624 South Grand Avenue,Suite 110,Los Angeles,CA,90017
8535 Highfield Parkway,,Englewood,CO,
3500 Lyman Blvd,,Chaska,MN,
21005 Lahser Rd.,,Southfield,MI,48033
3105 & 3205 Alfred St,,Santa Clara,CA,95054
5350 S Valentia Way Bldg #2,,Greenwood Village,CO,80111
5222 33rd Street,,Grand Rapids,MI,49512
75 West Watkins Mill Road,,Gaithersburg,MD,20878-4021
500 Rutherford Avenue,,Boston,MA,2129
471 Jplwick Drive,,Harrisburg,PA,17111
27 Miller Street,,Lemoyne,PA,17043
810 Parish Street,,Pittsburgh,PA,15220
311 Rockrimmon Boulevard,,Colorado Springs,CO,80919
3311 South 120th Place,,Tukwila,WA,98168
140 S. Dearborn St. Suite 200,Suite 220,Chicago,IL,60603
2368 Corporate Lane,,Naperville,IL,60563
603 Discovery Drive,,West Chicago,IL,60185
9333 W Grand Avenue Suite 120,,Franklin Park,IL,60131
165 Kirts Boulevard ,#400,Troy,MI,48084
24245 Northwestern Hwy,,Southfield,MI,48075
1430 Joh Ave.,,Halethorpe,MD,21227
175 Admiral Cochrane Drive,,Annapolis ,MD,21401
1755/1757 Old Meadow Road,,McLean,VA,22102
1921 Gallows Road,,Vienna,VA,22182
22451 Shaw Road,,Sterling,VA,20166
800 Cottontail Lane,,Somerset,NJ,8873
2330 Vartan Way,,Harrisburg,PA,17110
9999 Hamilton Boulevard,,Breinigsville,PA,18031
21 Gregory Drive,Suite 165,South Burlington,VT,5403
150 South First Street,,San Jose,CA,95113
2050 Martin Avenue,,Santa Clara,CA,95050
50 W San Fernando,,San Jose,CA,95122
2500 CityWest Boulevard,,Houston,TX,77042
5959 Corporate Drive,,Houston,TX,77036
12121 Grant Street,,Thornton,CO,80241
1500 Champa Street,,Denver,CO,80202
3431 N. Windsor Drive,,Aurora,CO,80011
7499 East Paradise Lane,,Scottsdale ,AZ,85260
9610 SW Sunshine Court,,Beaverton,OR,97005
23403 E. Mission Avenue,,Liberty Lake,WA,99019
101 Marietta Street,,Atlanta,GA,30303
375 Riverside Parkway,,Lithia Springs,GA,30122
5600 United Drive SE,,Smyrna,GA,30082
940 3rd Avenue North,,Nashville,TN,37201
3080 Ogden Avenue,Suite 303,Lisle,IL,60532
601 W. Polk,,Chicago,IL,60605
4001 Technology Drive,,South Bend,IN,46628
11300 NW 25th Street,,Miami,FL,33172
3250 W Commercial Blvd.,,Fort Lauderdale,FL,33309
3331 W Big Beaver Road,,Troy,MI,48084
1 South Street,,Baltimore,MD,21202
"21701 Filigree Court, Bldg D",,Ashburn,VA,20147
44470 Chilum Place (Bldg 1), Bldg 1,Ashburn,VA,20147
8801 Park Central Dr. Suite 200,,Richmond,VA,23227
1 Beacon St.,,Boston,MA,2108
1 Cabot Road,,Medford,MA,2155
105 Cabot St,,Needham,MA,2494
200 Quannapowitt Parkway,,Wakefield,MA,1880
55 Middlesex Turnpike,,Bedford,MA,1803
70 Innerbelt Road,,Somerville,MA,2143
800 Boylston Street,,Boston,MA,2116
2 Emerson Lane,,Secaucus,NJ,7094
2367 N Penn Rd.,,Hatfield,PA,19440
115 Evergreen Heights Drive,,Pittsburgh,PA,15229
630 3rd Street,,San Francisco,CA,94107
10555 Cossey Road,,Houston,TX,77070
5170 Westway Park Blvd,,Houston,TX,77041
"76 Inverness Drive East, Suite B",Suite B,Englewood,CO,80112
900 South Broadway,Suite 400,Denver,CO,80209
2140 SW Jefferson St.,,Portland,OR,97201
1023 39th Avenue SE ,,Seattle,WA,98374
12201 Tukwila International (Intergate West),,Tukwila,WA,98168
2707 Colby Ave.,,Everett,WA,98201
6101 S 180th St,,Tukwila,WA,98188
180 East 5th Street,,St. Paul,MN,55101
600 Stinson Boulevard,,Minneapolis,MN,55413
615 North 3rd St.,,Minneapolis,MN,55401
"1000 Hemphill Avenue, NW",,Atlanta,GA,30318
1033 Jefferson Street,,Atlanta,GA,30319
1100 White Street SW,,Atlanta,GA,30310
1130 Powers Ferry Place SE,,Marietta,GA,30067
11650 Great Oaks Way,,Alpharetta,GA,30022
"250 Williams St. NW, Suite E-100",Suite E-100,Atlanta,GA,30303
270 Peachtree Street NE,,Atlanta,GA,30303
2775 Northwoods Parkway,,Norcross,GA,30071
300 Satellite Boulevard,,Suwanee,GA,30024
450 Interstate Parkway SE,,Atlanta,GA,30308
55 Marietta Street,,Atlanta,GA,30303
"56 Marietta Street NW, 5th Floor",5th Floor,Atlanta,GA,30303
6 West Druid Hills Drive,,Atlanta,GA,30329
1661 Murfreesboro Road,,Nashville,TN,37217
209 10th Ave South,,Nashville,TN,37203
211 Commerce Street,,Nashville,TN,37201
425 Duke Dr. Suite 400,Suite 400,Franklin,TN,37067
500 W. Summit Hill,,Knoxville,TN,37902
7100 Commerce Way,Suite 50,Brentwood,TN,37027
101 North Wacker Drive,,Chicago,IL,60606
111 North Canal St. Suite 200,Suite 200,Chicago,IL,60606
1221 E. Business Center Drive,,Mt. Prospect,IL,60056
1331 E. Business Center Drive,,Mt. Prospect,IL,60056
141 West Jackson Boulevard,Suite 1135,Chicago,IL,60604
1717 Park Street,,Naperville,IL,60563
1808 Swift Drive,,Oak Brook,IL,60523
184 Shuman Boulevard,,Naperville,IL,60540
1850 Springer Drive,,Lombard,IL,60148
1905 Lunt Street,,Elk Grove Village,IL,60007
2200 Busse Road,,Elk Grove Village,IL,60623
2425 Busse Road,,Elk Grove Village,IL,60007
341-361 Haynes Dr.,,Wood Dale,IL,60191
"350 East Cermak Rd, 5th Floor, Ste 650",5th Floor,Chicago,IL,60616
427 South LaSalle Street,,Chicago,IL,60605
4901 Colt Road,,Rockford,IL,61109
505 Railroad Avenue,,Northlake,IL,60164
600 South Federal Street,5th Floor,Chicago,IL,60605
711 N. Edgewood Avenue,,Wood Dale,IL,60191
717 South Wells Street,,Chicago,IL,60607
800 E. Business Center Drive,,Mt. Prospect,IL,60056
835 Oak Creek Drive,,Lombard,IL,60148
506 W. South Street,,South Bend,IN,46120
100 Biscayne Boulevard,Suite 605,Miami,FL,33132
100 NE 3rd Avenue,,Fort Lauderdale,FL,33301
100 NE 80th Terrace,,Miami,FL,33138
11234 NW 20th Street,,Miami,FL,33172
200 SE 1st Street,,Miami,FL,33131
200 W. Forsythe Street,,Jacksonville,FL,32202
2115 NW 22nd Street,,Miami,FL,33142
36 NE 2nd Street,,Miami,FL,33132
421 West Church Street,,Jacksonville ,FL,32202
4800 Spring Park Road,,Jacksonville ,FL,32207
4814 Philips Hwy,,Jacksonville ,FL,32207
4905 Belfort Road ,Ste 145,Jacksonville ,FL,32256
50 NE 9th Street,,Miami,FL,33132
5301 NW 33rd Avenue,,Fort Lauderdale,FL,33309
600 SW 3rd Street,Suite 2170,Pompano Beach,FL,33060
6425 Southpoint Pkwy,,Jacksonville ,FL,32216
800 Water Street,,Jacksonville ,FL,32202
2425 Technology Boulevard,,Columbus,IN,47201
401 North Shadeland Avenue,,Indianapolis,IN,46219
5312 W Washington Center,,Fort Wayne,IN,46818
620 W. Coliseum Boulevard,,Fort Wayne,IN,46808
701 W Henry Street,,Indianapolis,IN,46225
733 W Henry Street,,Indianapolis,IN,46225
740 W Henry Street,,Indianapolis,IN,46225
19675 West Ten Mile Road,,Southfield,MI,48075
21420 Melrose Avenue,,Southfield,MI,48075
21648 Melrose Avenue,,Southfield,MI,48075
24275 Northwestern Highway,DC1,Southfield,MI,48075
24660 Lahser Road,,Southfield,MI,48034
3131 S State St. Suite 306,Suite 306,Ann Arbor,MI,48108
319 Executive Drive,,Troy,MI,48083
400 76th St SW,,Grand Rapids,MI,49509
44675 Helm Court,,Plymouth,MI,48170
4815 Delemere Avenue,,Royal Oak,MI,48073
5225 Exchange Drive,,Flint,MI,48507
5430 Data Court,Suite 300,Ann Arbor,MI,48108
640 Avis Dr.,,Ann Arbor,MI,48108
100 S. Charles Street,Suite 215,Baltimore,MD,21201
1050 Hull Street,,Baltimore,MD,21230
111 Market Place,7th Floor,Baltimore,MD,21202
1401 Russell Street,,Baltimore,MD,21230
14405 Laurel Place,,Laurel,MD,20707
300 West Lexington Street,,Baltimore,MD,21201
5744-R Industry Lane,,Frederick,MD,21704
12100 Sunrise Valley Drive,,Reston,VA,20191
"21635 Red Rum Dr., Suite 100",Suite 100,Ashburn,VA,20147
"21711 Filigree Court, Bldg C",,Ashburn,VA,20147
"21715 Filigree Court, Bldg F",,Ashburn,VA,20147
44664 Guilford Drive,,Ashburn,VA,20147
4551 Cox Road (Glen Allen or Richmond),,Richmond,VA,23060
45901 Nokes Boulevard,,Sterling,VA,20166
6000 Technology Boulevard,,Richmond,VA,23150
8851 Park Central Drive,Suite 200,Richmond,VA,23227
1 First Avenue (1 1st),,Waltham,MA,2451
1 Summer Street,,Boston,MA,2110
100 Quannapowitt Parkway,,Wakefield,MA,1880
1050 Hingham Street,,Rockland,MA,2370
115 Second Avenue ,,Waltham,MA,2451
128 First Avenue,,Needham,MA,1880
1504 Providence Highway,,Norwood,MA,2062
300 Bent Street,,Cambridge,MA,2141
305 Winter Street,,Waltham,MA,2451
313 Boston Post Rd West,,Marlborough,MA,1752
34 St Martin Drive,,Marlborough,MA,1752
400 Minuteman Road,,Andover,MA,1810
41 Alexander Road,,Billerica,MA,1821
456 Bedford Street,,Fall River,MA,2720
480 Arsenal Street,,Watertown,MA,2471
580 Winter Street,,Waltham,MA,2451
1 Sundial Avenue,,Manchester,NH,
8 Commerce Drive,,Bedford,NH,3110
1201 N Market Street,,Wilmington,DE,19801
650 Pencader Drive,,Newark,DE,19702
1 Enterprise Avenue North,,Secaucus,NJ,7094
1 Farr View Drive,,Cranbury,NJ,8512
100 Twinbridge Drive,Suite A,Pennsauken,NJ,8110
125 Belmont Drive,,Somerset,NJ,8873
"165 Halsey St, 8th Floor",8th Floor,Newark,NJ,7102
275 Hartz Way,,Secaucus,NJ,7094
755 Secaucus Road,,Secaucus,NJ,7094
1000 Adams Avenue,Comcast Rack,Trooper,PA,19403
1100 East Hector St,,Conshohocken,PA,19428
1500 Spring Garden,3rd Flr MMR,Philadelphia,PA,
2401 Locust Street,,Philadelphia,PA,19103
3701 Market Street,5th Floor,Philadelphia,PA,19104
401 North Broad Street Suite 990,9th Floor (Suite 990),Philadelphia,PA,19123
4775 League Island Boulevard,Navy Yard,Philadelphia,PA,19112
833 Chestnut Street,8th Flr POP Rm,Philadelphia,PA,19107
1 Allegheny Center Mall,,Pittsburgh,PA,15212
1 Meridian Boulevard,Suite 2D01,Wyomissing,PA,19610
100 South Commons / Allegheny Center Mall,Suite 126,Pittsburgh,PA,15212
1144 Kennebec Drive,,Chambersburg,PA,17201
2500 Allegheny Center Mall,,Pittsburgh,PA,15212
2561 Bernville Road,,Reading,PA,19605
301 Chestnut Street,,Harrisburg,PA,17101
90 Beta Drive,,Pittsburgh,PA,15238
1 Enterprise Drive,# 400,Shelton,CT,6484
105 Darling Drive,,Avon ,CT,6001
4 Pin Oak Drive,,Branford,CT ,6702
4 Tower Lane ,,Wallingford,CT,6492
65 N. Plains Industrial Road,Suite 9,Wallingford,CT ,6492
66 Hawley Road,,Oxford,CT,6478
1 Federal Street,,Springfield,MA,1105
10 Hamilton Landing,,Novato,CA,94945
1075 Triangle Court,,Broderick,CA,95605
11 Great Oaks Boulevard,,San Jose,CA,95119
1100 North Market Boulevard,,Sacramento,CA,95834
11085 Sun Center Drive,,Rancho Cordova,CA,95670
1200 Striker Avenue,,Sacramento,CA,95834
1312 Striker Ave.,,Sacramento,CA,95834
1320 Kifer Road,,Sunnyvale,CA,94086
1350 Duane Avenue,,Santa Clara,CA,950054
1380 Kifer Road,,Sunnyvale,CA,94086
1515 K Street,,Sacramento,CA,95814
1550 Space Park Drive,,Santa Clara,CA,95054
1555 Plymouth Street,,Mountain View,CA,94043
1624 Franklin Street,,Oakland,CA,94612
1656 McCarthy Boulevard,,Milpitas,CA,95035
1735 Lundy Avenue,,San Jose,CA,95131
200 Paul Avenue   ,,San Francisco,CA,94110
2334 Lundy Place,,San Jose,CA,95101
2401 Walsh Avenue,,Santa Clara,CA,95051
2720 Zanker Road,,San Jose,CA,95134
2807 Mission College Boulevard,,Santa Clara,CA,95054
3030 Corvin Drive,,Santa Clara,CA,95051
360 Spear Street,,San Francisco,CA,94105
365 Main Street,,San Francisco,CA,94105
400 Holger Way,,San Jose,CA,95134
4235 Forcum Avenue,,McClellan,CA,95652
444 Toyoma Drive,,Sunnyvale,CA,94089
4650 Old Ironsides Drive,,Santa Clara,CA,95054
48233 Warm Springs Boulevard,,Fremont,CA,94539
5000 Hollis Street,,Emeryville,CA,94608
529 Bryant Street,1st Floor,Palo Alto,CA,94301
55 South Market Street,Suite 440,San Jose,CA,95113
720 2nd Street,,Oakland,CA,94607
760 Mission Court,,Fremont,CA,94539
801 Tenth Street,Modesto Post Tower,Modesto,CA,95354
9 Great Oaks Boulevard,,San Jose,CA,95119
1001 Texas Street,Suite 310,Houston,TX,77002
12001 North Freeway,I-45,Houston,TX,77060
12025 North Freeway,,Houston,TX,77060
1301 Fannin St. Suite 1100,Suite 1100,Houston,TX,77022
1510 Primewest Parkway,,Katy,TX,77449
2401 Portsmouth Street,,Houston,TX,77098
4201 Southwest Freeway,,Houston,TX,77027
5150 Westway Park Blvd,,Houston,TX,77041
5555 San Felipe Street,Suite 625,Houston,TX,77056
"757 N Eldridge Parkway, Suite 200",,Houston,TX,77079
780 Westridge Road,,The Woodlands,TX,77380
102 South Tejon Street,,Colorado Springs,CO,80903
11900 E. Cornell Ave. Suite A,,Aurora,CO,80014
1205 Shasta Drive,,Colorado Springs,CO,80910
12500 East Arapahoe Road,,Centennial,CO,80112
1850 Pearl Street,,Denver,CO,80203
335 Inverness Drive South,,Englewood,CO,80112
382 S. Arthur Avenue,,Louisville,CO,80027
393 Inverness Parkway,,Englewood,CO,80112
4300 Brighton Boulevard,,Denver,CO,80216
451 Railroad Avenue,,Loveland,CO,80537
5335 Sterling Drive,,Boulder,CO,80301
550 E. 84th Avenue Suite E-5,Suite E-5,Thorton,CO,80229
6900 S. Peoria Street,,Englewood,CO,80112
910 15th Street,,Denver,CO,80202
9150 Commerce Center Circle,,Higlands Ranch,CO,80129
9180 Commerce Center Circle,,Higlands Ranch,CO,80129
9706 East Easter Avenue,Suite 160,Englewood,CO,80112
1155 S 800 E,,Orem,UT,84097
118 South 1000 West,,Salt Lake City,UT,84111
1414 South Main Street,,Salt Lake City,UT,84115
14944 Pony Express Drive,,Bluffdale,UT,84065
179 Social Hall Ave. St. 200,,Salt Lake City,UT,84111
2302 South Presidents Drive,,West Valley City,UT,84120
265 East 100 South,,Salt Lake City,UT,84111
333 South 520 West,,Lindon,UT,84042
357 South 670 West,Suite 100,Lindon,UT,84042
510 East Technology Avenue,Bldg C Suite 1100,Orem,UT,84097
572 South Delong Street,,Salt Lake City,UT,84104
703 East Technology Avenue,,Orem,UT,84097
7202 South Campus View Drive,,West Jordan,UT,84084
1225 W Burnside Street,,Portland,OR,97209
1233 NW 12th Ave. Suite 201,,Portland,OR,97209
13455 SE 97th Avenue,,Clackamas,OR,97015
14945 SW Sequoia Parkway,Suite 110,Portland,OR,97224
21515 NW Evergreen Parkway,,Hillsboro,OR,97124
3935 NW Aloclek Place,,Hillsboro,OR,97124
"511 SW 10th Avenue, Suite 300",3rd Floor,Portland,OR,97205
520 SW 6th Avenue,,Portland,OR,97204
625 SW Stark St. Ste. 500,Suite 500,Portland,OR,97205
921 SW Washington Street,Alco Properties,Portland,OR,97205
9705 SW Sunshine Court,,Beaverton,OR,97005
"1000 Denny Way, 4th Floor",4th Floor,Seattle,WA,98109
1101 A. St. Suite 400,,Tacoma,WA,98402
12101 Tukwila International Blvd.,,Seattle,WA,98168
12301 Tukwila International Boulevard,,Tukwila,WA,98168
140 Fourth Avenue North,Suite 200,Seattle,WA,98109
2001 6th Ave.,,Seattle,WA,98121
3301 Monte Villa Pkwy Suite 125,,Bothell,WA,98021
3355 South 120th Place (building 5),,Tukwila,WA,98168
4200 194th Street SW,,Lynnwood,WA,98036
422 West Riverside Avenue,,Spokane,WA,99201
501 S. 336th Street,,Federal Way,WA,98003
10290 West 70th Street,,Eden Prairie,MN,55344
12450 Wayzata Boulevard,,Minnetonka,MN,55305
400 Roberts Street,,Saint Paul,MN,55107
511 11th Avenue South,,Minneapolis,MN,55415
7700 France Avenue South,,Edina,MN,55435